{
  "norad_id": 63071,
  "name": "STARLINK-33624",
  "history": [
    {
      "epoch": "2026-03-28T21:21:14.303232Z",
      "apogee_km": 485.634614915366,
      "perigee_km": 480.32054445111044,
      "latitude_deg": -2.2426297154613184e-05,
      "longitude_deg": -111.2195331483165,
      "height_km": 481.8678227375071,
      "semi_major_axis_km": 6861.114579683238,
      "eccentricity": 0.00038726,
      "inclination_deg": 43.0051,
      "raan_deg": 35.3938,
      "arg_perigee_deg": 289.5396,
      "mean_anomaly_deg": 70.5037,
      "mean_motion_rev_day": 15.27603884
    },
    {
      "epoch": "2026-03-29T05:12:00.814176Z",
      "apogee_km": 483.9695728173738,
      "perigee_km": 481.95241000789883,
      "latitude_deg": 3.839994801203795e-05,
      "longitude_deg": 128.91830201451953,
      "height_km": 482.5736954077246,
      "semi_major_axis_km": 6861.0979914126365,
      "eccentricity": 0.000147,
      "inclination_deg": 43.0038,
      "raan_deg": 33.5476,
      "arg_perigee_deg": 279.3857,
      "mean_anomaly_deg": 80.6829,
      "mean_motion_rev_day": 15.27609424
    },
    {
      "epoch": "2026-03-30T04:44:21.646464Z",
      "apogee_km": 484.05229894603235,
      "perigee_km": 481.91217863306883,
      "latitude_deg": 5.815996716096702e-05,
      "longitude_deg": 129.3258052006799,
      "height_km": 482.98907231321925,
      "semi_major_axis_km": 6861.11923878955,
      "eccentricity": 0.00015596,
      "inclination_deg": 43.0035,
      "raan_deg": 28.0086,
      "arg_perigee_deg": 257.6054,
      "mean_anomaly_deg": 102.4624,
      "mean_motion_rev_day": 15.27602328
    },
    {
      "epoch": "2026-03-30T12:35:08.782944Z",
      "apogee_km": 483.7837981882658,
      "perigee_km": 482.2217911026164,
      "latitude_deg": -4.279006142156946e-05,
      "longitude_deg": 9.457754640565694,
      "height_km": 482.57885284673563,
      "semi_major_axis_km": 6861.139794645441,
      "eccentricity": 0.00011383,
      "inclination_deg": 43.0064,
      "raan_deg": 26.1593,
      "arg_perigee_deg": 284.9237,
      "mean_anomaly_deg": 75.1488,
      "mean_motion_rev_day": 15.27595463
    },
    {
      "epoch": "2026-03-31T19:58:18.106464Z",
      "apogee_km": 483.5719055957179,
      "perigee_km": 482.5180280456152,
      "latitude_deg": -5.668878101743339e-05,
      "longitude_deg": -110.00188053386458,
      "height_km": 482.8566419702187,
      "semi_major_axis_km": 6861.181966820666,
      "eccentricity": 7.68e-05,
      "inclination_deg": 43.002,
      "raan_deg": 18.7775,
      "arg_perigee_deg": 266.1587,
      "mean_anomaly_deg": 93.9176,
      "mean_motion_rev_day": 15.27581379
    },
    {
      "epoch": "2026-04-01T02:14:55.523616Z",
      "apogee_km": 483.65651034366874,
      "perigee_km": 482.3978983820216,
      "latitude_deg": 2.6611622921365927e-05,
      "longitude_deg": 154.10701413924573,
      "height_km": 482.8288021699629,
      "semi_major_axis_km": 6861.164204362845,
      "eccentricity": 9.172e-05,
      "inclination_deg": 43.0018,
      "raan_deg": 17.3,
      "arg_perigee_deg": 267.7124,
      "mean_anomaly_deg": 92.3623,
      "mean_motion_rev_day": 15.27587311
    }
  ]
}